satname,norad_id,inclination_deg,eccentricity,mean_motion_rev_per_day,perigee_km,apogee_km,l1,l2
STARLINK-1554,46055,53.1581,0.0001706,15.31703822,469.56018559450695,471.8970185379312,1 46055U 20055AE  26148.84455087  .00001951  00000+0  74616-4 0  9997,2 46055  53.1581 101.2151 0001706  80.6707 279.4488 15.31703822321356
STARLINK-1564,46058,53.1585,0.0001107,15.30208859,474.4299550238529,475.9472813157163,1 46058U 20055AH  26148.17103516  .00011604  00000+0  40319-3 0  9991,2 46058  53.1585 105.1842 0001107  96.9009 263.2118 15.30208859321230
STARLINK-1570,46059,53.1586,0.0001189,15.31722037,469.8599811987997,471.4886285270959,1 46059U 20055AJ  26148.15473699  .00004474  00000+0  15576-3 0  9996,2 46059  53.1586 104.3094 0001189  78.9486 281.1649 15.31722037321206
STARLINK-1572,46060,53.1599,0.0001576,15.30194142,474.1524693644915,476.31265144993176,1 46060U 20055AK  26148.87050734  .00000363  00000+0  24410-4 0  9999,2 46060  53.1599 101.6844 0001576  80.8713 279.2466 15.30194142321316
STARLINK-1573,46061,53.1607,0.0001356,15.31715465,469.76519378386274,471.62259672265463,1 46061U 20055AL  26148.59750714  .00003387  00000+0  12079-3 0  9990,2 46061  53.1607 102.2163 0001356  79.6001 280.5154 15.31715465321317
STARLINK-1577,46063,53.159,0.0001248,15.31717967,469.8317038921641,471.54117022205446,1 46063U 20055AN  26148.10346993  .00004671  00000+0  16210-3 0  9997,2 46063  53.1590 104.5076 0001248 109.3616 250.7520 15.31717967321237
STARLINK-1583,46064,53.1581,0.0001054,15.30212944,474.45408200633483,475.8987604755321,1 46064U 20055AP  26148.83463176  .00007778  00000+0  27435-3 0  9993,2 46064  53.1581 101.5991 0001054 102.4931 257.6188 15.30212944321331
STARLINK-1536,46070,53.1611,0.0001964,15.31702285,469.38806566392486,472.0783018721095,1 46070U 20055AV  26148.57556573  .00004360  00000+0  15218-3 0  9995,2 46070  53.1611  90.2002 0001964  86.1626 273.9600 15.31702285321476
STARLINK-1542,46073,53.1602,0.0001081,15.31723798,469.9286996098799,471.4094114790896,1 46073U 20055AY  26148.14317532  .00006141  00000+0  20933-3 0  9990,2 46073  53.1602  95.1794 0001081  86.2110 273.9015 15.31723798321359
STARLINK-1549,46074,53.0501,0.0004501,15.28415261,477.4620685545733,483.63625783868156,1 46074U 20055AZ  26148.54074197  .00036373  00000+0  13033-2 0  9994,2 46074  53.0501  90.4056 0004501  72.3756 287.7734 15.28415261321448
STARLINK-1551,46075,53.1598,0.000173,15.30197183,474.03784912333595,476.4091118495844,1 46075U 20055BA  26148.81513417 -.00000515  00000+0 -52633-5 0  9991,2 46075  53.1598  88.8878 0001730  84.0857 276.0341 15.30197183321507
STARLINK-1552,46076,53.1619,0.0001182,15.31709822,469.90118271110896,471.5202503112914,1 46076U 20055BB  26148.55252821  .00005152  00000+0  17762-3 0  9994,2 46076  53.1619  89.8249 0001182  97.8441 262.2695 15.31709822321450
STARLINK-1559,46077,53.0243,0.0002656,15.37116137,452.82741244614954,456.4569847564471,1 46077U 20055BC  26148.46032071  .00055934  00000+0  15165-2 0  9995,2 46077  53.0243  60.3494 0002656  73.5771 286.5523 15.37116137321820
STARLINK-1566,46079,53.1618,0.0001277,15.3170343,469.85517030660685,471.6043708798161,1 46079U 20055BE  26148.55718847 -.00001092  00000+0 -23432-4 0  9995,2 46079  53.1618  89.6582 0001277  79.1079 281.0067 15.31703430321478
STARLINK-1568,46080,53.0597,0.000384,15.53139997,404.9591141935789,410.17053319417573,1 46080U 20055BF  26148.84375468  .00057350  00000+0  89990-3 0  9993,2 46080  53.0597   8.5402 0003840  62.2919 297.8480 15.53139997322627
STARLINK-1578,46082,53.1614,0.0001643,15.31690711,469.6424103514173,471.89296043103695,1 46082U 20055BH  26148.56156963 -.00002631  00000+0 -73072-4 0  9990,2 46082  53.1614  90.1496 0001643 110.3701 249.7477 15.31690711321468
STARLINK-1579,46083,53.1613,0.000113,15.31710685,469.93422448053843,471.4820634830785,1 46083U 20055BJ  26148.22161309  .00007212  00000+0  24387-3 0  9996,2 46083  53.1613  91.2728 0001130  79.9618 280.1511 15.31710685321412
STARLINK-1622,46128,53.0154,0.0007261,15.80756433,323.4307678663872,333.16985613087127,1 46128U 20057M   26148.83337963  .00107536  00000+0  54359-3 0  9998,2 46128  53.0154 186.4986 0007261  26.6851 142.9972 15.80756433  5996
STARLINK-1623,46129,53.0435,0.0005228,15.72253069,348.94051539649263,355.97802685758234,1 46129U 20057N   26148.45577697  .00116431  00000+0  85568-3 0  9997,2 46129  53.0435 225.8595 0005228 358.7337   1.3666 15.72253069319390
STARLINK-1596,46141,53.0354,0.0006789,15.57466457,390.39412918535436,399.5906842938266,1 46141U 20057AA  26148.44408294  .00097366  00000+0  12915-2 0  9996,2 46141  53.0354 207.2752 0006789 355.1887   4.9057 15.57466457319659
STARLINK-1597,46142,53.0439,0.0003,15.72003817,351.15131485334587,355.19009947764516,1 46142U 20057AB  26148.62169377  .00127134  00000+0  94305-3 0  9994,2 46142  53.0439 264.7649 0003000  12.6279 347.4813 15.72003817318850
STARLINK-1606,46144,53.0353,0.0008121,15.85711715,308.88652441390695,319.75641546077986,1 46144U 20057AD  26148.83337963  .00257986  00000+0  10106-2 0  9992,2 46144  53.0353 217.8288 0008121 341.2767  56.9700 15.85711715  6013
STARLINK-1608,46146,53.1591,0.0002476,15.34887181,459.56218501085823,462.9490522356009,1 46146U 20057AF  26148.82815455  .00053131  00000+0  15483-2 0  9999,2 46146  53.1591 296.1210 0002476 299.1266  60.9488 15.34887181318465
STARLINK-1667,46155,53.0126,0.0008809,15.85143129,310.0249542023239,321.8185469090531,1 46155U 20057AQ  26148.83337963  .00145428  00000+0  59403-3 0  9995,2 46155  53.0126 186.0642 0008809  24.9363 346.0541 15.85143129  6018
STARLINK-1545,46156,53.0404,0.0006268,15.79531928,327.5601307516272,335.97166502441996,1 46156U 20057AR  26148.83337963  .00137354  00000+0  73105-3 0  9990,2 46156  53.0404 221.8885 0006268 326.6029 237.5273 15.79531928  6009
STARLINK-1595,46159,53.0431,0.0003173,15.70093446,356.4921219884691,360.76727413505887,1 46159U 20057AU  26148.57644304  .00112995  00000+0  91004-3 0  9996,2 46159  53.0431 267.5876 0003173 357.6504   2.4497 15.70093446320075
STARLINK-1598,46160,53.0454,0.0001752,15.70007675,357.69472859498546,360.0553776183933,1 46160U 20057AV  26148.54977789  .00108929  00000+0  88114-3 0  9991,2 46160  53.0454 253.8628 0001752 164.9907 195.1162 15.70007675320250
STARLINK-1626,46167,53.0421,0.0002132,15.70087074,357.2116423810485,360.08420747303717,1 46167U 20057BC  26148.60685882  .00107423  00000+0  86630-3 0  9994,2 46167  53.0421 263.0907 0002132 350.1169   9.9805 15.70087074318889
